{"type": "FeatureCollection", "features": [{"type": "Feature", "geometry": {"type": "LineString", "coordinates": [[4.89756940055571, 52.3577071652761], [4.89748007108868, 52.3577119984502]]}, "properties": {"Speed": 0.0, "Speed_display": 14.4, "road_quality": 2, "marker": 0, "trip_id": "604F0_Trip18", "hrot_diff": 0, "sample_diff": 1, "time_diff_s": 0.02, "gps_distance_m": 6.1, "original_speed": "", "wheel_diameter_mm": 711, "braking_intensity": 0.0, "is_braking": false, "is_crash": false, "crash_intensity_g": 0.0, "segment_start_sample": 2151, "segment_end_sample": 2152, "time_str": ""}}, {"type": "Feature", "geometry": {"type": "LineString", "coordinates": [[4.89748007108868, 52.3577119984502], [4.8973779946459, 52.3577175213188]]}, "properties": {"Speed": 0.0, "Speed_display": 15.8, "road_quality": 2, "marker": 0, "trip_id": "604F0_Trip18", "hrot_diff": 0, "sample_diff": 1, "time_diff_s": 0.02, "gps_distance_m": 7.0, "original_speed": "", "wheel_diameter_mm": 711, "braking_intensity": 0.0, "is_braking": false, "is_crash": false, "crash_intensity_g": 0.0, "segment_start_sample": 2250, "segment_end_sample": 2251, "time_str": ""}}, {"type": "Feature", "geometry": {"type": "LineString", "coordinates": [[4.8973779946459, 52.3577175213188], [4.89618519306612, 52.3577862075294]]}, "properties": {"Speed": 0.0, "Speed_display": 18.7, "road_quality": 2, "marker": 0, "trip_id": "604F0_Trip18", "hrot_diff": 0, "sample_diff": 1, "time_diff_s": 0.02, "gps_distance_m": 81.4, "original_speed": "", "wheel_diameter_mm": 711, "braking_intensity": 0.0, "is_braking": false, "is_crash": false, "crash_intensity_g": 0.0, "segment_start_sample": 2752, "segment_end_sample": 2753, "time_str": ""}}, {"type": "Feature", "geometry": {"type": "LineString", "coordinates": [[4.89618519306612, 52.3577862075294], [4.89599732089708, 52.3577969504254]]}, "properties": {"Speed": 0.0, "Speed_display": 15.1, "road_quality": 2, "marker": 0, "trip_id": "604F0_Trip18", "hrot_diff": 0, "sample_diff": 1, "time_diff_s": 0.02, "gps_distance_m": 12.8, "original_speed": "", "wheel_diameter_mm": 711, "braking_intensity": 0.0, "is_braking": false, "is_crash": false, "crash_intensity_g": 0.0, "segment_start_sample": 2853, "segment_end_sample": 2854, "time_str": ""}}, {"type": "Feature", "geometry": {"type": "LineString", "coordinates": [[4.89599732089708, 52.3577969504254], [4.89449443653731, 52.3578840828509]]}, "properties": {"Speed": 0.0, "Speed_display": 15.8, "road_quality": 3, "marker": 0, "trip_id": "604F0_Trip18", "hrot_diff": 0, "sample_diff": 1, "time_diff_s": 0.02, "gps_distance_m": 102.5, "original_speed": "", "wheel_diameter_mm": 711, "braking_intensity": 0.0, "is_braking": false, "is_crash": false, "crash_intensity_g": 0.0, "segment_start_sample": 3665, "segment_end_sample": 3666, "time_str": ""}}, {"type": "Feature", "geometry": {"type": "LineString", "coordinates": [[4.89449443653731, 52.3578840828509], [4.89430421962528, 52.3578932691111]]}, "properties": {"Speed": 0.0, "Speed_display": 16.6, "road_quality": 3, "marker": 0, "trip_id": "604F0_Trip18", "hrot_diff": 0, "sample_diff": 1, "time_diff_s": 0.02, "gps_distance_m": 13.0, "original_speed": "", "wheel_diameter_mm": 711, "braking_intensity": 0.0, "is_braking": false, "is_crash": false, "crash_intensity_g": 0.0, "segment_start_sample": 3766, "segment_end_sample": 3767, "time_str": ""}}, {"type": "Feature", "geometry": {"type": "LineString", "coordinates": [[4.89430421962528, 52.3578932691111], [4.88610422311987, 52.3606919532972]]}, "properties": {"Speed": 0.0, "Speed_display": 3.6, "road_quality": 2, "marker": 0, "trip_id": "604F0_Trip18", "hrot_diff": 0, "sample_diff": 1, "time_diff_s": 0.02, "gps_distance_m": 637.9, "original_speed": "", "wheel_diameter_mm": 711, "braking_intensity": 0.0, "is_braking": false, "is_crash": false, "crash_intensity_g": 0.0, "segment_start_sample": 10415, "segment_end_sample": 10416, "time_str": ""}}, {"type": "Feature", "geometry": {"type": "LineString", "coordinates": [[4.88610422311987, 52.3606919532972], [4.88607171651232, 52.3606803614622]]}, "properties": {"Speed": 0.0, "Speed_display": 2.2, "road_quality": 2, "marker": 0, "trip_id": "604F0_Trip18", "hrot_diff": 0, "sample_diff": 1, "time_diff_s": 0.02, "gps_distance_m": 2.6, "original_speed": "", "wheel_diameter_mm": 711, "braking_intensity": 0.0, "is_braking": false, "is_crash": false, "crash_intensity_g": 0.0, "segment_start_sample": 10891, "segment_end_sample": 10892, "time_str": ""}}, {"type": "Feature", "geometry": {"type": "LineString", "coordinates": [[4.88607171651232, 52.3606803614622], [4.8849493413343, 52.3597416439498]]}, "properties": {"Speed": 0.0, "Speed_display": 12.2, "road_quality": 2, "marker": 0, "trip_id": "604F0_Trip18", "hrot_diff": 0, "sample_diff": 1, "time_diff_s": 0.02, "gps_distance_m": 129.2, "original_speed": "", "wheel_diameter_mm": 711, "braking_intensity": 0.0, "is_braking": false, "is_crash": false, "crash_intensity_g": 0.0, "segment_start_sample": 12225, "segment_end_sample": 12226, "time_str": ""}}, {"type": "Feature", "geometry": {"type": "LineString", "coordinates": [[4.8849493413343, 52.3597416439498], [4.88476441614707, 52.3596141685478]]}, "properties": {"Speed": 0.0, "Speed_display": 18.7, "road_quality": 2, "marker": 0, "trip_id": "604F0_Trip18", "hrot_diff": 0, "sample_diff": 1, "time_diff_s": 0.02, "gps_distance_m": 18.9, "original_speed": "", "wheel_diameter_mm": 711, "braking_intensity": 0.0, "is_braking": false, "is_crash": false, "crash_intensity_g": 0.0, "segment_start_sample": 12330, "segment_end_sample": 12331, "time_str": ""}}, {"type": "Feature", "geometry": {"type": "LineString", "coordinates": [[4.88476441614707, 52.3596141685478], [4.88364136680532, 52.3595591044329]]}, "properties": {"Speed": 0.0, "Speed_display": 0.7, "road_quality": 2, "marker": 0, "trip_id": "604F0_Trip18", "hrot_diff": 0, "sample_diff": 1, "time_diff_s": 0.02, "gps_distance_m": 76.5, "original_speed": "", "wheel_diameter_mm": 711, "braking_intensity": 0.0, "is_braking": false, "is_crash": false, "crash_intensity_g": 0.0, "segment_start_sample": 13509, "segment_end_sample": 13510, "time_str": ""}}, {"type": "Feature", "geometry": {"type": "LineString", "coordinates": [[4.88364136680532, 52.3595591044329], [4.88360228980333, 52.3595707078418]]}, "properties": {"Speed": 0.0, "Speed_display": 4.3, "road_quality": 2, "marker": 0, "trip_id": "604F0_Trip18", "hrot_diff": 0, "sample_diff": 1, "time_diff_s": 0.02, "gps_distance_m": 3.0, "original_speed": "", "wheel_diameter_mm": 711, "braking_intensity": 0.0, "is_braking": false, "is_crash": false, "crash_intensity_g": 0.0, "segment_start_sample": 13736, "segment_end_sample": 13737, "time_str": ""}}, {"type": "Feature", "geometry": {"type": "LineString", "coordinates": [[4.88360228980333, 52.3595707078418], [4.87781362658134, 52.3595043004334]]}, "properties": {"Speed": 0.0, "Speed_display": 0.0, "road_quality": 2, "marker": 0, "trip_id": "604F0_Trip18", "hrot_diff": 0, "sample_diff": 1, "time_diff_s": 0.02, "gps_distance_m": 393.2, "original_speed": "", "wheel_diameter_mm": 711, "braking_intensity": 0.0, "is_braking": false, "is_crash": false, "crash_intensity_g": 0.0, "segment_start_sample": 18227, "segment_end_sample": 18228, "time_str": ""}}, {"type": "Feature", "geometry": {"type": "LineString", "coordinates": [[4.87781362658134, 52.3595043004334], [4.87775552710769, 52.3594907810462]]}, "properties": {"Speed": 0.0, "Speed_display": 3.6, "road_quality": 2, "marker": 0, "trip_id": "604F0_Trip18", "hrot_diff": 0, "sample_diff": 1, "time_diff_s": 0.02, "gps_distance_m": 4.2, "original_speed": "", "wheel_diameter_mm": 711, "braking_intensity": 0.0, "is_braking": false, "is_crash": false, "crash_intensity_g": 0.0, "segment_start_sample": 19238, "segment_end_sample": 19239, "time_str": ""}}, {"type": "Feature", "geometry": {"type": "LineString", "coordinates": [[4.85584032013213, 52.354959754245], [4.85581938233219, 52.3549557611823]]}, "properties": {"Speed": 0.0, "Speed_display": 2.2, "road_quality": 2, "marker": 0, "trip_id": "604F0_Trip18", "hrot_diff": 0, "sample_diff": 1, "time_diff_s": 0.02, "gps_distance_m": 1.5, "original_speed": "", "wheel_diameter_mm": 711, "braking_intensity": 0.0, "is_braking": false, "is_crash": false, "crash_intensity_g": 0.0, "segment_start_sample": 33640, "segment_end_sample": 33641, "time_str": ""}}, {"type": "Feature", "geometry": {"type": "LineString", "coordinates": [[4.85581938233219, 52.3549557611823], [4.85289239637832, 52.3548373724736]]}, "properties": {"Speed": 0.0, "Speed_display": 16.6, "road_quality": 2, "marker": 0, "trip_id": "604F0_Trip18", "hrot_diff": 0, "sample_diff": 1, "time_diff_s": 0.02, "gps_distance_m": 199.2, "original_speed": "", "wheel_diameter_mm": 711, "braking_intensity": 0.0, "is_braking": false, "is_crash": false, "crash_intensity_g": 0.0, "segment_start_sample": 35814, "segment_end_sample": 35815, "time_str": ""}}, {"type": "Feature", "geometry": {"type": "LineString", "coordinates": [[4.85289239637832, 52.3548373724736], [4.85278191545916, 52.3548404016156]]}, "properties": {"Speed": 0.0, "Speed_display": 18.0, "road_quality": 2, "marker": 0, "trip_id": "604F0_Trip18", "hrot_diff": 0, "sample_diff": 1, "time_diff_s": 0.02, "gps_distance_m": 7.5, "original_speed": "", "wheel_diameter_mm": 711, "braking_intensity": 0.0, "is_braking": false, "is_crash": false, "crash_intensity_g": 0.0, "segment_start_sample": 35820, "segment_end_sample": 35821, "time_str": ""}}, {"type": "Feature", "geometry": {"type": "LineString", "coordinates": [[4.85278191545916, 52.3548404016156], [4.85258233987929, 52.3548501324453]]}, "properties": {"Speed": 0.0, "Speed_display": 17.3, "road_quality": 2, "marker": 0, "trip_id": "604F0_Trip18", "hrot_diff": 0, "sample_diff": 1, "time_diff_s": 0.02, "gps_distance_m": 13.6, "original_speed": "", "wheel_diameter_mm": 711, "braking_intensity": 0.0, "is_braking": false, "is_crash": false, "crash_intensity_g": 0.0, "segment_start_sample": 35923, "segment_end_sample": 35924, "time_str": ""}}, {"type": "Feature", "geometry": {"type": "LineString", "coordinates": [[4.85258233987929, 52.3548501324453], [4.84914396193931, 52.3549976294681]]}, "properties": {"Speed": 0.0, "Speed_display": 18.0, "road_quality": 2, "marker": 0, "trip_id": "604F0_Trip18", "hrot_diff": 0, "sample_diff": 1, "time_diff_s": 0.02, "gps_distance_m": 234.1, "original_speed": "", "wheel_diameter_mm": 711, "braking_intensity": 0.0, "is_braking": false, "is_crash": false, "crash_intensity_g": 0.0, "segment_start_sample": 37836, "segment_end_sample": 37837, "time_str": ""}}, {"type": "Feature", "geometry": {"type": "LineString", "coordinates": [[4.84914396193931, 52.3549976294681], [4.84893561341032, 52.3550048484661]]}, "properties": {"Speed": 0.0, "Speed_display": 18.0, "road_quality": 2, "marker": 0, "trip_id": "604F0_Trip18", "hrot_diff": 0, "sample_diff": 1, "time_diff_s": 0.02, "gps_distance_m": 14.2, "original_speed": "", "wheel_diameter_mm": 711, "braking_intensity": 0.0, "is_braking": false, "is_crash": false, "crash_intensity_g": 0.0, "segment_start_sample": 37937, "segment_end_sample": 37938, "time_str": ""}}, {"type": "Feature", "geometry": {"type": "LineString", "coordinates": [[4.83302840542253, 52.3563458428348], [4.83281453614287, 52.3563508888767]]}, "properties": {"Speed": 0.0, "Speed_display": 18.7, "road_quality": 2, "marker": 0, "trip_id": "604F0_Trip18", "hrot_diff": 0, "sample_diff": 1, "time_diff_s": 0.02, "gps_distance_m": 14.5, "original_speed": "", "wheel_diameter_mm": 711, "braking_intensity": 0.0, "is_braking": false, "is_crash": false, "crash_intensity_g": 0.0, "segment_start_sample": 47416, "segment_end_sample": 47417, "time_str": ""}}, {"type": "Feature", "geometry": {"type": "LineString", "coordinates": [[4.83281453614287, 52.3563508888767], [4.83228944122021, 52.3563405882513]]}, "properties": {"Speed": 0.0, "Speed_display": 18.7, "road_quality": 2, "marker": 0, "trip_id": "604F0_Trip18", "hrot_diff": 0, "sample_diff": 1, "time_diff_s": 0.02, "gps_distance_m": 35.7, "original_speed": "", "wheel_diameter_mm": 711, "braking_intensity": 0.0, "is_braking": false, "is_crash": false, "crash_intensity_g": 0.0, "segment_start_sample": 47704, "segment_end_sample": 47705, "time_str": ""}}, {"type": "Feature", "geometry": {"type": "LineString", "coordinates": [[4.83228944122021, 52.3563405882513], [4.83217618231777, 52.3563425259435]]}, "properties": {"Speed": 0.0, "Speed_display": 18.7, "road_quality": 2, "marker": 0, "trip_id": "604F0_Trip18", "hrot_diff": 0, "sample_diff": 1, "time_diff_s": 0.02, "gps_distance_m": 7.7, "original_speed": "", "wheel_diameter_mm": 711, "braking_intensity": 0.0, "is_braking": false, "is_crash": false, "crash_intensity_g": 0.0, "segment_start_sample": 47712, "segment_end_sample": 47713, "time_str": ""}}, {"type": "Feature", "geometry": {"type": "LineString", "coordinates": [[4.83217618231777, 52.3563425259435], [4.8319503914507, 52.3563403108503]]}, "properties": {"Speed": 0.0, "Speed_display": 19.4, "road_quality": 2, "marker": 0, "trip_id": "604F0_Trip18", "hrot_diff": 0, "sample_diff": 1, "time_diff_s": 0.02, "gps_distance_m": 15.3, "original_speed": "", "wheel_diameter_mm": 711, "braking_intensity": 0.0, "is_braking": false, "is_crash": false, "crash_intensity_g": 0.0, "segment_start_sample": 47812, "segment_end_sample": 47813, "time_str": ""}}, {"type": "Feature", "geometry": {"type": "LineString", "coordinates": [[4.8319503914507, 52.3563403108503], [4.82916045303788, 52.3563506075915]]}, "properties": {"Speed": 0.0, "Speed_display": 16.6, "road_quality": 2, "marker": 0, "trip_id": "604F0_Trip18", "hrot_diff": 0, "sample_diff": 1, "time_diff_s": 0.02, "gps_distance_m": 189.5, "original_speed": "", "wheel_diameter_mm": 711, "braking_intensity": 0.0, "is_braking": false, "is_crash": false, "crash_intensity_g": 0.0, "segment_start_sample": 49152, "segment_end_sample": 49153, "time_str": ""}}, {"type": "Feature", "geometry": {"type": "LineString", "coordinates": [[4.82916045303788, 52.3563506075915], [4.82895589981752, 52.3563558088103]]}, "properties": {"Speed": 0.0, "Speed_display": 17.3, "road_quality": 2, "marker": 0, "trip_id": "604F0_Trip18", "hrot_diff": 0, "sample_diff": 1, "time_diff_s": 0.02, "gps_distance_m": 13.9, "original_speed": "", "wheel_diameter_mm": 711, "braking_intensity": 0.0, "is_braking": false, "is_crash": false, "crash_intensity_g": 0.0, "segment_start_sample": 49258, "segment_end_sample": 49259, "time_str": ""}}, {"type": "Feature", "geometry": {"type": "LineString", "coordinates": [[4.82895589981752, 52.3563558088103], [4.82789012007074, 52.3563311083342]]}, "properties": {"Speed": 0.0, "Speed_display": 17.3, "road_quality": 2, "marker": 0, "trip_id": "604F0_Trip18", "hrot_diff": 0, "sample_diff": 1, "time_diff_s": 0.02, "gps_distance_m": 72.4, "original_speed": "", "wheel_diameter_mm": 711, "braking_intensity": 0.0, "is_braking": false, "is_crash": false, "crash_intensity_g": 0.0, "segment_start_sample": 49828, "segment_end_sample": 49829, "time_str": ""}}, {"type": "Feature", "geometry": {"type": "LineString", "coordinates": [[4.82789012007074, 52.3563311083342], [4.82771120713504, 52.3563324844279]]}, "properties": {"Speed": 0.0, "Speed_display": 15.8, "road_quality": 2, "marker": 0, "trip_id": "604F0_Trip18", "hrot_diff": 0, "sample_diff": 1, "time_diff_s": 0.02, "gps_distance_m": 12.2, "original_speed": "", "wheel_diameter_mm": 711, "braking_intensity": 0.0, "is_braking": false, "is_crash": false, "crash_intensity_g": 0.0, "segment_start_sample": 49930, "segment_end_sample": 49931, "time_str": ""}}, {"type": "Feature", "geometry": {"type": "LineString", "coordinates": [[4.82771120713504, 52.3563324844279], [4.82749992742171, 52.3563822293795]]}, "properties": {"Speed": 0.0, "Speed_display": 0.7, "road_quality": 1, "marker": 0, "trip_id": "604F0_Trip18", "hrot_diff": 0, "sample_diff": 1, "time_diff_s": 0.02, "gps_distance_m": 15.4, "original_speed": "", "wheel_diameter_mm": 711, "braking_intensity": 0.0, "is_braking": false, "is_crash": false, "crash_intensity_g": 0.0, "segment_start_sample": 50244, "segment_end_sample": 50245, "time_str": ""}}, {"type": "Feature", "geometry": {"type": "LineString", "coordinates": [[4.82749992742171, 52.3563822293795], [4.82746968408378, 52.3563560643535]]}, "properties": {"Speed": 0.0, "Speed_display": 3.6, "road_quality": 2, "marker": 0, "trip_id": "604F0_Trip18", "hrot_diff": 0, "sample_diff": 1, "time_diff_s": 0.02, "gps_distance_m": 3.6, "original_speed": "", "wheel_diameter_mm": 711, "braking_intensity": 0.0, "is_braking": false, "is_crash": false, "crash_intensity_g": 0.0, "segment_start_sample": 50829, "segment_end_sample": 50830, "time_str": ""}}, {"type": "Feature", "geometry": {"type": "LineString", "coordinates": [[4.81060566616488, 52.3543754433451], [4.81059098831111, 52.3543752468978]]}, "properties": {"Speed": 0.0, "Speed_display": 1.4, "road_quality": 2, "marker": 0, "trip_id": "604F0_Trip18", "hrot_diff": 0, "sample_diff": 1, "time_diff_s": 0.02, "gps_distance_m": 1.0, "original_speed": "", "wheel_diameter_mm": 711, "braking_intensity": 0.0, "is_braking": false, "is_crash": false, "crash_intensity_g": 0.0, "segment_start_sample": 60159, "segment_end_sample": 60160, "time_str": ""}}, {"type": "Feature", "geometry": {"type": "LineString", "coordinates": [[4.81059098831111, 52.3543752468978], [4.81011105439306, 52.3543182398943]]}, "properties": {"Speed": 0.0, "Speed_display": 17.3, "road_quality": 2, "marker": 0, "trip_id": "604F0_Trip18", "hrot_diff": 0, "sample_diff": 1, "time_diff_s": 0.02, "gps_distance_m": 33.2, "original_speed": "", "wheel_diameter_mm": 711, "braking_intensity": 0.0, "is_braking": false, "is_crash": false, "crash_intensity_g": 0.0, "segment_start_sample": 60491, "segment_end_sample": 60492, "time_str": ""}}, {"type": "Feature", "geometry": {"type": "LineString", "coordinates": [[4.81011105439306, 52.3543182398943], [4.80995036276925, 52.3542534546466]]}, "properties": {"Speed": 0.0, "Speed_display": 16.6, "road_quality": 2, "marker": 0, "trip_id": "604F0_Trip18", "hrot_diff": 0, "sample_diff": 1, "time_diff_s": 0.02, "gps_distance_m": 13.1, "original_speed": "", "wheel_diameter_mm": 711, "braking_intensity": 0.0, "is_braking": false, "is_crash": false, "crash_intensity_g": 0.0, "segment_start_sample": 60594, "segment_end_sample": 60595, "time_str": ""}}]}