{"type": "FeatureCollection", "features": [{"type": "Feature", "geometry": {"type": "LineString", "coordinates": [[4.80976478489712, 52.3539310707925], [4.80998128039741, 52.3539839437667]]}, "properties": {"Speed": 0.0, "Speed_display": 19.4, "road_quality": 2, "marker": 0, "trip_id": "602CA_Trip13", "hrot_diff": 0, "sample_diff": 1, "time_diff_s": 0.02, "gps_distance_m": 15.8, "original_speed": "", "wheel_diameter_mm": 711, "braking_intensity": 0.0, "is_braking": false, "is_crash": false, "crash_intensity_g": 0.0, "segment_start_sample": 5370, "segment_end_sample": 5371, "time_str": ""}}, {"type": "Feature", "geometry": {"type": "LineString", "coordinates": [[4.80998128039741, 52.3539839437667], [4.82044068340654, 52.3560749109123]]}, "properties": {"Speed": 0.0, "Speed_display": 20.9, "road_quality": 2, "marker": 0, "trip_id": "602CA_Trip13", "hrot_diff": 0, "sample_diff": 1, "time_diff_s": 0.02, "gps_distance_m": 747.4, "original_speed": "", "wheel_diameter_mm": 711, "braking_intensity": 0.0, "is_braking": false, "is_crash": false, "crash_intensity_g": 0.0, "segment_start_sample": 10100, "segment_end_sample": 10101, "time_str": ""}}, {"type": "Feature", "geometry": {"type": "LineString", "coordinates": [[4.82044068340654, 52.3560749109123], [4.82067514372822, 52.3560699120005]]}, "properties": {"Speed": 0.0, "Speed_display": 20.2, "road_quality": 2, "marker": 0, "trip_id": "602CA_Trip13", "hrot_diff": 0, "sample_diff": 1, "time_diff_s": 0.02, "gps_distance_m": 15.9, "original_speed": "", "wheel_diameter_mm": 711, "braking_intensity": 0.0, "is_braking": false, "is_crash": false, "crash_intensity_g": 0.0, "segment_start_sample": 10204, "segment_end_sample": 10205, "time_str": ""}}, {"type": "Feature", "geometry": {"type": "LineString", "coordinates": [[4.82067514372822, 52.3560699120005], [4.82437944887236, 52.3561150088296]]}, "properties": {"Speed": 0.0, "Speed_display": 20.2, "road_quality": 2, "marker": 0, "trip_id": "602CA_Trip13", "hrot_diff": 0, "sample_diff": 1, "time_diff_s": 0.02, "gps_distance_m": 251.6, "original_speed": "", "wheel_diameter_mm": 711, "braking_intensity": 0.0, "is_braking": false, "is_crash": false, "crash_intensity_g": 0.0, "segment_start_sample": 12052, "segment_end_sample": 12053, "time_str": ""}}, {"type": "Feature", "geometry": {"type": "LineString", "coordinates": [[4.82437944887236, 52.3561150088296], [4.824624070297, 52.3561165623112]]}, "properties": {"Speed": 0.0, "Speed_display": 20.9, "road_quality": 2, "marker": 0, "trip_id": "602CA_Trip13", "hrot_diff": 0, "sample_diff": 1, "time_diff_s": 0.02, "gps_distance_m": 16.6, "original_speed": "", "wheel_diameter_mm": 711, "braking_intensity": 0.0, "is_braking": false, "is_crash": false, "crash_intensity_g": 0.0, "segment_start_sample": 12155, "segment_end_sample": 12156, "time_str": ""}}, {"type": "Feature", "geometry": {"type": "LineString", "coordinates": [[4.824624070297, 52.3561165623112], [4.82687541573129, 52.3559073887358]]}, "properties": {"Speed": 0.0, "Speed_display": 5.8, "road_quality": 1, "marker": 0, "trip_id": "602CA_Trip13", "hrot_diff": 0, "sample_diff": 1, "time_diff_s": 0.02, "gps_distance_m": 154.7, "original_speed": "", "wheel_diameter_mm": 711, "braking_intensity": 0.0, "is_braking": false, "is_crash": false, "crash_intensity_g": 0.0, "segment_start_sample": 13674, "segment_end_sample": 13675, "time_str": ""}}, {"type": "Feature", "geometry": {"type": "LineString", "coordinates": [[4.82687541573129, 52.3559073887358], [4.82687641978567, 52.355904683433]]}, "properties": {"Speed": 0.0, "Speed_display": 0.7, "road_quality": 1, "marker": 0, "trip_id": "602CA_Trip13", "hrot_diff": 0, "sample_diff": 1, "time_diff_s": 0.02, "gps_distance_m": 0.3, "original_speed": "", "wheel_diameter_mm": 711, "braking_intensity": 0.0, "is_braking": false, "is_crash": false, "crash_intensity_g": 0.0, "segment_start_sample": 14236, "segment_end_sample": 14237, "time_str": ""}}, {"type": "Feature", "geometry": {"type": "LineString", "coordinates": [[4.82687641978567, 52.355904683433], [4.82713887332798, 52.3560747090285]]}, "properties": {"Speed": 0.0, "Speed_display": 4.3, "road_quality": 2, "marker": 0, "trip_id": "602CA_Trip13", "hrot_diff": 0, "sample_diff": 1, "time_diff_s": 0.02, "gps_distance_m": 26.0, "original_speed": "", "wheel_diameter_mm": 711, "braking_intensity": 0.0, "is_braking": false, "is_crash": false, "crash_intensity_g": 0.0, "segment_start_sample": 14766, "segment_end_sample": 14767, "time_str": ""}}, {"type": "Feature", "geometry": {"type": "LineString", "coordinates": [[4.82713887332798, 52.3560747090285], [4.82717198386845, 52.3560770595148]]}, "properties": {"Speed": 0.0, "Speed_display": 0.7, "road_quality": 2, "marker": 0, "trip_id": "602CA_Trip13", "hrot_diff": 0, "sample_diff": 1, "time_diff_s": 0.02, "gps_distance_m": 2.3, "original_speed": "", "wheel_diameter_mm": 711, "braking_intensity": 0.0, "is_braking": false, "is_crash": false, "crash_intensity_g": 0.0, "segment_start_sample": 16158, "segment_end_sample": 16159, "time_str": ""}}, {"type": "Feature", "geometry": {"type": "LineString", "coordinates": [[4.82717198386845, 52.3560770595148], [4.83026860467262, 52.3562009878172]]}, "properties": {"Speed": 0.0, "Speed_display": 19.4, "road_quality": 2, "marker": 0, "trip_id": "602CA_Trip13", "hrot_diff": 0, "sample_diff": 1, "time_diff_s": 0.02, "gps_distance_m": 210.8, "original_speed": "", "wheel_diameter_mm": 711, "braking_intensity": 0.0, "is_braking": false, "is_crash": false, "crash_intensity_g": 0.0, "segment_start_sample": 17866, "segment_end_sample": 17867, "time_str": ""}}, {"type": "Feature", "geometry": {"type": "LineString", "coordinates": [[4.83026860467262, 52.3562009878172], [4.83051177377368, 52.3562081004648]]}, "properties": {"Speed": 0.0, "Speed_display": 20.9, "road_quality": 2, "marker": 0, "trip_id": "602CA_Trip13", "hrot_diff": 0, "sample_diff": 1, "time_diff_s": 0.02, "gps_distance_m": 16.5, "original_speed": "", "wheel_diameter_mm": 711, "braking_intensity": 0.0, "is_braking": false, "is_crash": false, "crash_intensity_g": 0.0, "segment_start_sample": 17972, "segment_end_sample": 17973, "time_str": ""}}, {"type": "Feature", "geometry": {"type": "LineString", "coordinates": [[4.83051177377368, 52.3562081004648], [4.84191477511757, 52.3562525103156]]}, "properties": {"Speed": 0.0, "Speed_display": 21.6, "road_quality": 2, "marker": 0, "trip_id": "602CA_Trip13", "hrot_diff": 0, "sample_diff": 1, "time_diff_s": 0.02, "gps_distance_m": 774.4, "original_speed": "", "wheel_diameter_mm": 711, "braking_intensity": 0.0, "is_braking": false, "is_crash": false, "crash_intensity_g": 0.0, "segment_start_sample": 23226, "segment_end_sample": 23227, "time_str": ""}}, {"type": "Feature", "geometry": {"type": "LineString", "coordinates": [[4.84191477511757, 52.3562525103156], [4.84215249774904, 52.3562578947253]]}, "properties": {"Speed": 0.0, "Speed_display": 20.9, "road_quality": 2, "marker": 0, "trip_id": "602CA_Trip13", "hrot_diff": 0, "sample_diff": 1, "time_diff_s": 0.02, "gps_distance_m": 16.2, "original_speed": "", "wheel_diameter_mm": 711, "braking_intensity": 0.0, "is_braking": false, "is_crash": false, "crash_intensity_g": 0.0, "segment_start_sample": 23327, "segment_end_sample": 23328, "time_str": ""}}, {"type": "Feature", "geometry": {"type": "LineString", "coordinates": [[4.84215249774904, 52.3562578947253], [4.85021573032061, 52.3549512562661]]}, "properties": {"Speed": 0.0, "Speed_display": 3.6, "road_quality": 2, "marker": 0, "trip_id": "602CA_Trip13", "hrot_diff": 0, "sample_diff": 1, "time_diff_s": 0.02, "gps_distance_m": 566.5, "original_speed": "", "wheel_diameter_mm": 711, "braking_intensity": 0.0, "is_braking": false, "is_crash": false, "crash_intensity_g": 0.0, "segment_start_sample": 28742, "segment_end_sample": 28743, "time_str": ""}}, {"type": "Feature", "geometry": {"type": "LineString", "coordinates": [[4.85021573032061, 52.3549512562661], [4.85024304450173, 52.3549514178885]]}, "properties": {"Speed": 0.0, "Speed_display": 2.2, "road_quality": 2, "marker": 0, "trip_id": "602CA_Trip13", "hrot_diff": 0, "sample_diff": 1, "time_diff_s": 0.02, "gps_distance_m": 1.9, "original_speed": "", "wheel_diameter_mm": 711, "braking_intensity": 0.0, "is_braking": false, "is_crash": false, "crash_intensity_g": 0.0, "segment_start_sample": 29173, "segment_end_sample": 29174, "time_str": ""}}, {"type": "Feature", "geometry": {"type": "LineString", "coordinates": [[4.85024304450173, 52.3549514178885], [4.85389162506849, 52.354735880258]]}, "properties": {"Speed": 0.0, "Speed_display": 15.8, "road_quality": 2, "marker": 0, "trip_id": "602CA_Trip13", "hrot_diff": 0, "sample_diff": 1, "time_diff_s": 0.02, "gps_distance_m": 248.9, "original_speed": "", "wheel_diameter_mm": 711, "braking_intensity": 0.0, "is_braking": false, "is_crash": false, "crash_intensity_g": 0.0, "segment_start_sample": 31173, "segment_end_sample": 31174, "time_str": ""}}, {"type": "Feature", "geometry": {"type": "LineString", "coordinates": [[4.85389162506849, 52.354735880258], [4.85417263256803, 52.3547123723478]]}, "properties": {"Speed": 0.0, "Speed_display": 16.6, "road_quality": 2, "marker": 0, "trip_id": "602CA_Trip13", "hrot_diff": 0, "sample_diff": 1, "time_diff_s": 0.02, "gps_distance_m": 19.3, "original_speed": "", "wheel_diameter_mm": 711, "braking_intensity": 0.0, "is_braking": false, "is_crash": false, "crash_intensity_g": 0.0, "segment_start_sample": 31280, "segment_end_sample": 31281, "time_str": ""}}, {"type": "Feature", "geometry": {"type": "LineString", "coordinates": [[4.85417263256803, 52.3547123723478], [4.85583948102793, 52.3549501815482]]}, "properties": {"Speed": 0.0, "Speed_display": 13.7, "road_quality": 2, "marker": 0, "trip_id": "602CA_Trip13", "hrot_diff": 0, "sample_diff": 1, "time_diff_s": 0.02, "gps_distance_m": 116.3, "original_speed": "", "wheel_diameter_mm": 711, "braking_intensity": 0.0, "is_braking": false, "is_crash": false, "crash_intensity_g": 0.0, "segment_start_sample": 32371, "segment_end_sample": 32372, "time_str": ""}}, {"type": "Feature", "geometry": {"type": "LineString", "coordinates": [[4.85583948102793, 52.3549501815482], [4.85599699028305, 52.3549865668966]]}, "properties": {"Speed": 0.0, "Speed_display": 14.4, "road_quality": 2, "marker": 0, "trip_id": "602CA_Trip13", "hrot_diff": 0, "sample_diff": 1, "time_diff_s": 0.02, "gps_distance_m": 11.4, "original_speed": "", "wheel_diameter_mm": 711, "braking_intensity": 0.0, "is_braking": false, "is_crash": false, "crash_intensity_g": 0.0, "segment_start_sample": 32472, "segment_end_sample": 32473, "time_str": ""}}, {"type": "Feature", "geometry": {"type": "LineString", "coordinates": [[4.88170207705166, 52.3616870803853], [4.88175109302548, 52.3616974818055]]}, "properties": {"Speed": 0.0, "Speed_display": 5.0, "road_quality": 2, "marker": 0, "trip_id": "602CA_Trip13", "hrot_diff": 0, "sample_diff": 1, "time_diff_s": 0.02, "gps_distance_m": 3.5, "original_speed": "", "wheel_diameter_mm": 711, "braking_intensity": 0.0, "is_braking": false, "is_crash": false, "crash_intensity_g": 0.0, "segment_start_sample": 45725, "segment_end_sample": 45726, "time_str": ""}}, {"type": "Feature", "geometry": {"type": "LineString", "coordinates": [[4.88175109302548, 52.3616974818055], [4.88492724131994, 52.3619861663104]]}, "properties": {"Speed": 0.0, "Speed_display": 20.2, "road_quality": 2, "marker": 0, "trip_id": "602CA_Trip13", "hrot_diff": 0, "sample_diff": 1, "time_diff_s": 0.02, "gps_distance_m": 218.0, "original_speed": "", "wheel_diameter_mm": 711, "braking_intensity": 0.0, "is_braking": false, "is_crash": false, "crash_intensity_g": 0.0, "segment_start_sample": 48226, "segment_end_sample": 48227, "time_str": ""}}, {"type": "Feature", "geometry": {"type": "LineString", "coordinates": [[4.88492724131994, 52.3619861663104], [4.88499042528426, 52.3619485094827]]}, "properties": {"Speed": 0.0, "Speed_display": 17.3, "road_quality": 2, "marker": 0, "trip_id": "602CA_Trip13", "hrot_diff": 0, "sample_diff": 1, "time_diff_s": 0.02, "gps_distance_m": 6.0, "original_speed": "", "wheel_diameter_mm": 711, "braking_intensity": 0.0, "is_braking": false, "is_crash": false, "crash_intensity_g": 0.0, "segment_start_sample": 48232, "segment_end_sample": 48233, "time_str": ""}}, {"type": "Feature", "geometry": {"type": "LineString", "coordinates": [[4.88499042528426, 52.3619485094827], [4.88518095196502, 52.361871470726]]}, "properties": {"Speed": 0.0, "Speed_display": 18.0, "road_quality": 2, "marker": 0, "trip_id": "602CA_Trip13", "hrot_diff": 0, "sample_diff": 1, "time_diff_s": 0.02, "gps_distance_m": 15.5, "original_speed": "", "wheel_diameter_mm": 711, "braking_intensity": 0.0, "is_braking": false, "is_crash": false, "crash_intensity_g": 0.0, "segment_start_sample": 48329, "segment_end_sample": 48330, "time_str": ""}}, {"type": "Feature", "geometry": {"type": "LineString", "coordinates": [[4.88518095196502, 52.361871470726], [4.88571662622557, 52.3615938265966]]}, "properties": {"Speed": 0.0, "Speed_display": 19.4, "road_quality": 2, "marker": 0, "trip_id": "602CA_Trip13", "hrot_diff": 0, "sample_diff": 1, "time_diff_s": 0.02, "gps_distance_m": 47.7, "original_speed": "", "wheel_diameter_mm": 711, "braking_intensity": 0.0, "is_braking": false, "is_crash": false, "crash_intensity_g": 0.0, "segment_start_sample": 48637, "segment_end_sample": 48638, "time_str": ""}}, {"type": "Feature", "geometry": {"type": "LineString", "coordinates": [[4.88571662622557, 52.3615938265966], [4.88588599322705, 52.3615163470192]]}, "properties": {"Speed": 0.0, "Speed_display": 16.6, "road_quality": 2, "marker": 0, "trip_id": "602CA_Trip13", "hrot_diff": 0, "sample_diff": 1, "time_diff_s": 0.02, "gps_distance_m": 14.4, "original_speed": "", "wheel_diameter_mm": 711, "braking_intensity": 0.0, "is_braking": false, "is_crash": false, "crash_intensity_g": 0.0, "segment_start_sample": 48739, "segment_end_sample": 48740, "time_str": ""}}, {"type": "Feature", "geometry": {"type": "LineString", "coordinates": [[4.88588599322705, 52.3615163470192], [4.89046470893341, 52.3595514523882]]}, "properties": {"Speed": 0.0, "Speed_display": 0.0, "road_quality": 2, "marker": 0, "trip_id": "602CA_Trip13", "hrot_diff": 0, "sample_diff": 1, "time_diff_s": 0.02, "gps_distance_m": 380.0, "original_speed": "", "wheel_diameter_mm": 711, "braking_intensity": 0.0, "is_braking": false, "is_crash": false, "crash_intensity_g": 0.0, "segment_start_sample": 51398, "segment_end_sample": 51399, "time_str": ""}}, {"type": "Feature", "geometry": {"type": "LineString", "coordinates": [[4.89046470893341, 52.3595514523882], [4.89048102987029, 52.3595499091654]]}, "properties": {"Speed": 0.0, "Speed_display": 2.9, "road_quality": 2, "marker": 0, "trip_id": "602CA_Trip13", "hrot_diff": 0, "sample_diff": 1, "time_diff_s": 0.02, "gps_distance_m": 1.1, "original_speed": "", "wheel_diameter_mm": 711, "braking_intensity": 0.0, "is_braking": false, "is_crash": false, "crash_intensity_g": 0.0, "segment_start_sample": 53671, "segment_end_sample": 53672, "time_str": ""}}, {"type": "Feature", "geometry": {"type": "LineString", "coordinates": [[4.89048102987029, 52.3595499091654], [4.89220804958237, 52.3594002698984]]}, "properties": {"Speed": 0.0, "Speed_display": 21.6, "road_quality": 2, "marker": 0, "trip_id": "602CA_Trip13", "hrot_diff": 0, "sample_diff": 1, "time_diff_s": 0.02, "gps_distance_m": 118.5, "original_speed": "", "wheel_diameter_mm": 711, "braking_intensity": 0.0, "is_braking": false, "is_crash": false, "crash_intensity_g": 0.0, "segment_start_sample": 54632, "segment_end_sample": 54633, "time_str": ""}}, {"type": "Feature", "geometry": {"type": "LineString", "coordinates": [[4.89220804958237, 52.3594002698984], [4.89245155490461, 52.3594128804992]]}, "properties": {"Speed": 0.0, "Speed_display": 21.6, "road_quality": 2, "marker": 0, "trip_id": "602CA_Trip13", "hrot_diff": 0, "sample_diff": 1, "time_diff_s": 0.02, "gps_distance_m": 16.6, "original_speed": "", "wheel_diameter_mm": 711, "braking_intensity": 0.0, "is_braking": false, "is_crash": false, "crash_intensity_g": 0.0, "segment_start_sample": 54740, "segment_end_sample": 54741, "time_str": ""}}, {"type": "Feature", "geometry": {"type": "LineString", "coordinates": [[4.89245155490461, 52.3594128804992], [4.89818724223239, 52.3593749326563]]}, "properties": {"Speed": 0.0, "Speed_display": 3.6, "road_quality": 2, "marker": 0, "trip_id": "602CA_Trip13", "hrot_diff": 0, "sample_diff": 1, "time_diff_s": 0.02, "gps_distance_m": 389.5, "original_speed": "", "wheel_diameter_mm": 711, "braking_intensity": 0.0, "is_braking": false, "is_crash": false, "crash_intensity_g": 0.0, "segment_start_sample": 57644, "segment_end_sample": 57645, "time_str": ""}}, {"type": "Feature", "geometry": {"type": "LineString", "coordinates": [[4.89818724223239, 52.3593749326563], [4.89824202862564, 52.3593828246729]]}, "properties": {"Speed": 0.0, "Speed_display": 2.9, "road_quality": 2, "marker": 0, "trip_id": "602CA_Trip13", "hrot_diff": 0, "sample_diff": 1, "time_diff_s": 0.02, "gps_distance_m": 3.8, "original_speed": "", "wheel_diameter_mm": 711, "braking_intensity": 0.0, "is_braking": false, "is_crash": false, "crash_intensity_g": 0.0, "segment_start_sample": 59015, "segment_end_sample": 59016, "time_str": ""}}, {"type": "Feature", "geometry": {"type": "LineString", "coordinates": [[4.89824202862564, 52.3593828246729], [4.89996989391811, 52.3596448897056]]}, "properties": {"Speed": 0.0, "Speed_display": 20.9, "road_quality": 2, "marker": 0, "trip_id": "602CA_Trip13", "hrot_diff": 0, "sample_diff": 1, "time_diff_s": 0.02, "gps_distance_m": 120.9, "original_speed": "", "wheel_diameter_mm": 711, "braking_intensity": 0.0, "is_braking": false, "is_crash": false, "crash_intensity_g": 0.0, "segment_start_sample": 60143, "segment_end_sample": 60144, "time_str": ""}}, {"type": "Feature", "geometry": {"type": "LineString", "coordinates": [[4.89996989391811, 52.3596448897056], [4.90021312740008, 52.3596659868512]]}, "properties": {"Speed": 0.0, "Speed_display": 20.9, "road_quality": 3, "marker": 0, "trip_id": "602CA_Trip13", "hrot_diff": 0, "sample_diff": 1, "time_diff_s": 0.02, "gps_distance_m": 16.7, "original_speed": "", "wheel_diameter_mm": 711, "braking_intensity": 0.0, "is_braking": false, "is_crash": false, "crash_intensity_g": 0.0, "segment_start_sample": 60249, "segment_end_sample": 60250, "time_str": ""}}, {"type": "Feature", "geometry": {"type": "LineString", "coordinates": [[4.90021312740008, 52.3596659868512], [4.90150971904787, 52.3598412547546]]}, "properties": {"Speed": 0.0, "Speed_display": 22.3, "road_quality": 2, "marker": 0, "trip_id": "602CA_Trip13", "hrot_diff": 0, "sample_diff": 1, "time_diff_s": 0.02, "gps_distance_m": 90.2, "original_speed": "", "wheel_diameter_mm": 711, "braking_intensity": 0.0, "is_braking": false, "is_crash": false, "crash_intensity_g": 0.0, "segment_start_sample": 60788, "segment_end_sample": 60789, "time_str": ""}}, {"type": "Feature", "geometry": {"type": "LineString", "coordinates": [[4.90150971904787, 52.3598412547546], [4.90174170527738, 52.3598787352873]]}, "properties": {"Speed": 0.0, "Speed_display": 21.6, "road_quality": 2, "marker": 0, "trip_id": "602CA_Trip13", "hrot_diff": 0, "sample_diff": 1, "time_diff_s": 0.02, "gps_distance_m": 16.3, "original_speed": "", "wheel_diameter_mm": 711, "braking_intensity": 0.0, "is_braking": false, "is_crash": false, "crash_intensity_g": 0.0, "segment_start_sample": 60891, "segment_end_sample": 60892, "time_str": ""}}, {"type": "Feature", "geometry": {"type": "LineString", "coordinates": [[4.90174170527738, 52.3598787352873], [4.90269877396193, 52.3600525619823]]}, "properties": {"Speed": 0.0, "Speed_display": 21.6, "road_quality": 2, "marker": 0, "trip_id": "602CA_Trip13", "hrot_diff": 0, "sample_diff": 1, "time_diff_s": 0.02, "gps_distance_m": 67.8, "original_speed": "", "wheel_diameter_mm": 711, "braking_intensity": 0.0, "is_braking": false, "is_crash": false, "crash_intensity_g": 0.0, "segment_start_sample": 61310, "segment_end_sample": 61311, "time_str": ""}}, {"type": "Feature", "geometry": {"type": "LineString", "coordinates": [[4.90269877396193, 52.3600525619823], [4.90294453831317, 52.3600914645838]]}, "properties": {"Speed": 0.0, "Speed_display": 21.6, "road_quality": 2, "marker": 0, "trip_id": "602CA_Trip13", "hrot_diff": 0, "sample_diff": 1, "time_diff_s": 0.02, "gps_distance_m": 17.2, "original_speed": "", "wheel_diameter_mm": 711, "braking_intensity": 0.0, "is_braking": false, "is_crash": false, "crash_intensity_g": 0.0, "segment_start_sample": 61411, "segment_end_sample": 61412, "time_str": ""}}, {"type": "Feature", "geometry": {"type": "LineString", "coordinates": [[4.90294453831317, 52.3600914645838], [4.91114305089977, 52.3626141949309]]}, "properties": {"Speed": 0.0, "Speed_display": 18.7, "road_quality": 2, "marker": 0, "trip_id": "602CA_Trip13", "hrot_diff": 0, "sample_diff": 1, "time_diff_s": 0.02, "gps_distance_m": 623.4, "original_speed": "", "wheel_diameter_mm": 711, "braking_intensity": 0.0, "is_braking": false, "is_crash": false, "crash_intensity_g": 0.0, "segment_start_sample": 66882, "segment_end_sample": 66883, "time_str": ""}}, {"type": "Feature", "geometry": {"type": "LineString", "coordinates": [[4.91114305089977, 52.3626141949309], [4.91107820740241, 52.3627376959523]]}, "properties": {"Speed": 0.0, "Speed_display": 18.7, "road_quality": 2, "marker": 0, "trip_id": "602CA_Trip13", "hrot_diff": 0, "sample_diff": 1, "time_diff_s": 0.02, "gps_distance_m": 14.4, "original_speed": "", "wheel_diameter_mm": 711, "braking_intensity": 0.0, "is_braking": false, "is_crash": false, "crash_intensity_g": 0.0, "segment_start_sample": 66990, "segment_end_sample": 66991, "time_str": ""}}, {"type": "Feature", "geometry": {"type": "LineString", "coordinates": [[4.91107820740241, 52.3627376959523], [4.91091748219501, 52.3636628761629]]}, "properties": {"Speed": 0.0, "Speed_display": 17.3, "road_quality": 2, "marker": 0, "trip_id": "602CA_Trip13", "hrot_diff": 0, "sample_diff": 1, "time_diff_s": 0.02, "gps_distance_m": 103.5, "original_speed": "", "wheel_diameter_mm": 711, "braking_intensity": 0.0, "is_braking": false, "is_crash": false, "crash_intensity_g": 0.0, "segment_start_sample": 67726, "segment_end_sample": 67727, "time_str": ""}}, {"type": "Feature", "geometry": {"type": "LineString", "coordinates": [[4.91091748219501, 52.3636628761629], [4.9109584372389, 52.3637684566207]]}, "properties": {"Speed": 0.0, "Speed_display": 16.6, "road_quality": 2, "marker": 0, "trip_id": "602CA_Trip13", "hrot_diff": 0, "sample_diff": 1, "time_diff_s": 0.02, "gps_distance_m": 12.1, "original_speed": "", "wheel_diameter_mm": 711, "braking_intensity": 0.0, "is_braking": false, "is_crash": false, "crash_intensity_g": 0.0, "segment_start_sample": 67833, "segment_end_sample": 67834, "time_str": ""}}, {"type": "Feature", "geometry": {"type": "LineString", "coordinates": [[4.9109584372389, 52.3637684566207], [4.91209692922052, 52.3666590382049]]}, "properties": {"Speed": 0.0, "Speed_display": 16.6, "road_quality": 2, "marker": 0, "trip_id": "602CA_Trip13", "hrot_diff": 0, "sample_diff": 1, "time_diff_s": 0.02, "gps_distance_m": 330.6, "original_speed": "", "wheel_diameter_mm": 711, "braking_intensity": 0.0, "is_braking": false, "is_crash": false, "crash_intensity_g": 0.0, "segment_start_sample": 70520, "segment_end_sample": 70521, "time_str": ""}}, {"type": "Feature", "geometry": {"type": "LineString", "coordinates": [[4.91209692922052, 52.3666590382049], [4.91221029429536, 52.3667862773117]]}, "properties": {"Speed": 0.0, "Speed_display": 20.2, "road_quality": 2, "marker": 0, "trip_id": "602CA_Trip13", "hrot_diff": 0, "sample_diff": 1, "time_diff_s": 0.02, "gps_distance_m": 16.1, "original_speed": "", "wheel_diameter_mm": 711, "braking_intensity": 0.0, "is_braking": false, "is_crash": false, "crash_intensity_g": 0.0, "segment_start_sample": 70621, "segment_end_sample": 70622, "time_str": ""}}, {"type": "Feature", "geometry": {"type": "LineString", "coordinates": [[4.91221029429536, 52.3667862773117], [4.91313834721072, 52.3691629200499]]}, "properties": {"Speed": 0.0, "Speed_display": 16.6, "road_quality": 2, "marker": 0, "trip_id": "602CA_Trip13", "hrot_diff": 0, "sample_diff": 1, "time_diff_s": 0.02, "gps_distance_m": 271.7, "original_speed": "", "wheel_diameter_mm": 711, "braking_intensity": 0.0, "is_braking": false, "is_crash": false, "crash_intensity_g": 0.0, "segment_start_sample": 73798, "segment_end_sample": 73799, "time_str": ""}}, {"type": "Feature", "geometry": {"type": "LineString", "coordinates": [[4.91313834721072, 52.3691629200499], [4.91293407757326, 52.3692285587193]]}, "properties": {"Speed": 0.0, "Speed_display": 19.4, "road_quality": 2, "marker": 0, "trip_id": "602CA_Trip13", "hrot_diff": 0, "sample_diff": 1, "time_diff_s": 0.02, "gps_distance_m": 15.7, "original_speed": "", "wheel_diameter_mm": 711, "braking_intensity": 0.0, "is_braking": false, "is_crash": false, "crash_intensity_g": 0.0, "segment_start_sample": 73901, "segment_end_sample": 73902, "time_str": ""}}, {"type": "Feature", "geometry": {"type": "LineString", "coordinates": [[4.91293407757326, 52.3692285587193], [4.91282882807128, 52.3692661952856]]}, "properties": {"Speed": 0.0, "Speed_display": 20.2, "road_quality": 2, "marker": 0, "trip_id": "602CA_Trip13", "hrot_diff": 0, "sample_diff": 1, "time_diff_s": 0.02, "gps_distance_m": 8.3, "original_speed": "", "wheel_diameter_mm": 711, "braking_intensity": 0.0, "is_braking": false, "is_crash": false, "crash_intensity_g": 0.0, "segment_start_sample": 73918, "segment_end_sample": 73919, "time_str": ""}}, {"type": "Feature", "geometry": {"type": "LineString", "coordinates": [[4.91282882807128, 52.3692661952856], [4.91265500183058, 52.3693235591585]]}, "properties": {"Speed": 0.0, "Speed_display": 18.0, "road_quality": 2, "marker": 0, "trip_id": "602CA_Trip13", "hrot_diff": 0, "sample_diff": 1, "time_diff_s": 0.02, "gps_distance_m": 13.4, "original_speed": "", "wheel_diameter_mm": 711, "braking_intensity": 0.0, "is_braking": false, "is_crash": false, "crash_intensity_g": 0.0, "segment_start_sample": 74019, "segment_end_sample": 74020, "time_str": ""}}, {"type": "Feature", "geometry": {"type": "LineString", "coordinates": [[4.91265500183058, 52.3693235591585], [4.91506246305985, 52.3710441620206]]}, "properties": {"Speed": 0.0, "Speed_display": 3.6, "road_quality": 2, "marker": 0, "trip_id": "602CA_Trip13", "hrot_diff": 0, "sample_diff": 1, "time_diff_s": 0.02, "gps_distance_m": 251.6, "original_speed": "", "wheel_diameter_mm": 711, "braking_intensity": 0.0, "is_braking": false, "is_crash": false, "crash_intensity_g": 0.0, "segment_start_sample": 78029, "segment_end_sample": 78030, "time_str": ""}}, {"type": "Feature", "geometry": {"type": "LineString", "coordinates": [[4.91506246305985, 52.3710441620206], [4.91508004196832, 52.3710477987388]]}, "properties": {"Speed": 0.0, "Speed_display": 2.2, "road_quality": 2, "marker": 0, "trip_id": "602CA_Trip13", "hrot_diff": 0, "sample_diff": 1, "time_diff_s": 0.02, "gps_distance_m": 1.3, "original_speed": "", "wheel_diameter_mm": 711, "braking_intensity": 0.0, "is_braking": false, "is_crash": false, "crash_intensity_g": 0.0, "segment_start_sample": 79803, "segment_end_sample": 79804, "time_str": ""}}, {"type": "Feature", "geometry": {"type": "LineString", "coordinates": [[4.91508004196832, 52.3710477987388], [4.91535205516713, 52.3711390032598]]}, "properties": {"Speed": 0.0, "Speed_display": 14.4, "road_quality": 2, "marker": 0, "trip_id": "602CA_Trip13", "hrot_diff": 0, "sample_diff": 1, "time_diff_s": 0.02, "gps_distance_m": 21.1, "original_speed": "", "wheel_diameter_mm": 711, "braking_intensity": 0.0, "is_braking": false, "is_crash": false, "crash_intensity_g": 0.0, "segment_start_sample": 80038, "segment_end_sample": 80039, "time_str": ""}}, {"type": "Feature", "geometry": {"type": "LineString", "coordinates": [[4.91535205516713, 52.3711390032598], [4.9155125826224, 52.3712011527639]]}, "properties": {"Speed": 0.0, "Speed_display": 16.6, "road_quality": 2, "marker": 0, "trip_id": "602CA_Trip13", "hrot_diff": 0, "sample_diff": 1, "time_diff_s": 0.02, "gps_distance_m": 12.9, "original_speed": "", "wheel_diameter_mm": 711, "braking_intensity": 0.0, "is_braking": false, "is_crash": false, "crash_intensity_g": 0.0, "segment_start_sample": 80140, "segment_end_sample": 80141, "time_str": ""}}, {"type": "Feature", "geometry": {"type": "LineString", "coordinates": [[4.9155125826224, 52.3712011527639], [4.91751262972292, 52.3719205353813]]}, "properties": {"Speed": 0.0, "Speed_display": 18.7, "road_quality": 2, "marker": 0, "trip_id": "602CA_Trip13", "hrot_diff": 0, "sample_diff": 1, "time_diff_s": 0.02, "gps_distance_m": 157.6, "original_speed": "", "wheel_diameter_mm": 711, "braking_intensity": 0.0, "is_braking": false, "is_crash": false, "crash_intensity_g": 0.0, "segment_start_sample": 81137, "segment_end_sample": 81138, "time_str": ""}}, {"type": "Feature", "geometry": {"type": "LineString", "coordinates": [[4.91751262972292, 52.3719205353813], [4.9176539045365, 52.3720091683216]]}, "properties": {"Speed": 0.0, "Speed_display": 18.0, "road_quality": 2, "marker": 0, "trip_id": "602CA_Trip13", "hrot_diff": 0, "sample_diff": 1, "time_diff_s": 0.02, "gps_distance_m": 13.8, "original_speed": "", "wheel_diameter_mm": 711, "braking_intensity": 0.0, "is_braking": false, "is_crash": false, "crash_intensity_g": 0.0, "segment_start_sample": 81241, "segment_end_sample": 81242, "time_str": ""}}]}